start=new Date('2022-10-30T00:00:00.000Z').valueOf();
sats=[{"MEAN_ANOMALY":"307.9680","EPOCH":"2022-10-29T21:56:28.778208","TLE_LINE2":"2 46574  53.0536 268.8372 0002552  52.1540 307.9680 15.06414175114819","APOAPSIS":"548.937","GP_ID":"216452893","ELEMENT_SET_NO":"999","SEMIMAJOR_AXIS":"6925.305","RA_OF_ASC_NODE":"268.8372","EPHEMERIS_TYPE":"0","SITE":"AFETR","PERIAPSIS":"545.403","BSTAR":"0.00012550000000","OBJECT_ID":"2020-070AU","INCLINATION":"53.0536","RCS_SIZE":"LARGE","CLASSIFICATION_TYPE":"U","TIME_SYSTEM":"UTC","MEAN_MOTION_DDOT":"0.0000000000000","OBJECT_NAME":"STARLINK-1660","MEAN_MOTION_DOT":"0.00001589","COUNTRY_CODE":"US","DECAY_DATE":null,"TLE_LINE1":"1 46574U 20070AU  22302.91422197  .00001589  00000-0  12550-3 0  9998","ECCENTRICITY":"0.00025520","CENTER_NAME":"EARTH","ARG_OF_PERICENTER":"52.1540","PERIOD":"95.591","NORAD_CAT_ID":"46574","REV_AT_EPOCH":"11481","MEAN_ELEMENT_THEORY":"SGP4","MEAN_MOTION":"15.06414175","LAUNCH_DATE":"2020-10-06","REF_FRAME":"TEME","FILE":"3637782","OBJECT_TYPE":"PAYLOAD"},{"RCS_SIZE":"LARGE","INCLINATION":"53.0537","BSTAR":"0.00010274000000","OBJECT_ID":"2020-070AV","PERIAPSIS":"545.896","TIME_SYSTEM":"UTC","CLASSIFICATION_TYPE":"U","MEAN_MOTION_DOT":"0.00001249","OBJECT_NAME":"STARLINK-1675","MEAN_MOTION_DDOT":"0.0000000000000","ECCENTRICITY":"0.00018450","TLE_LINE1":"1 46575U 20070AV  22302.83726892  .00001249  00000-0  10274-3 0  9993","DECAY_DATE":null,"COUNTRY_CODE":"US","APOAPSIS":"548.451","TLE_LINE2":"2 46575  53.0537 244.1854 0001845  52.1856 307.9299 15.06413090115145","EPOCH":"2022-10-29T20:05:40.034688","MEAN_ANOMALY":"307.9299","GP_ID":"216473369","RA_OF_ASC_NODE":"244.1854","SEMIMAJOR_AXIS":"6925.308","ELEMENT_SET_NO":"999","SITE":"AFETR","EPHEMERIS_TYPE":"0","LAUNCH_DATE":"2020-10-06","MEAN_MOTION":"15.06413090","REF_FRAME":"TEME","OBJECT_TYPE":"PAYLOAD","FILE":"3637863","ARG_OF_PERICENTER":"52.1856","CENTER_NAME":"EARTH","PERIOD":"95.591","REV_AT_EPOCH":"11514","NORAD_CAT_ID":"46575","MEAN_ELEMENT_THEORY":"SGP4"},{"MEAN_MOTION":"15.06406239","LAUNCH_DATE":"2020-10-06","REF_FRAME":"TEME","FILE":"3637766","OBJECT_TYPE":"PAYLOAD","CENTER_NAME":"EARTH","ARG_OF_PERICENTER":"46.6654","PERIOD":"95.592","NORAD_CAT_ID":"46576","REV_AT_EPOCH":"11481","MEAN_ELEMENT_THEORY":"SGP4","PERIAPSIS":"545.422","OBJECT_ID":"2020-070AW","BSTAR":"0.00004051000000","INCLINATION":"53.0557","RCS_SIZE":"LARGE","CLASSIFICATION_TYPE":"U","TIME_SYSTEM":"UTC","MEAN_MOTION_DDOT":"0.0000000000000","OBJECT_NAME":"STARLINK-1677","MEAN_MOTION_DOT":"0.00000322","DECAY_DATE":null,"COUNTRY_CODE":"US","TLE_LINE1":"1 46576U 20070AW  22302.90684633  .00000322  00000-0  40510-4 0  9996","ECCENTRICITY":"0.00025600","EPOCH":"2022-10-29T21:45:51.522912","MEAN_ANOMALY":"313.4548","TLE_LINE2":"2 46576  53.0557 268.8637 0002560  46.6654 313.4548 15.06406239114818","APOAPSIS":"548.967","GP_ID":"216452978","ELEMENT_SET_NO":"999","SEMIMAJOR_AXIS":"6925.329","RA_OF_ASC_NODE":"268.8637","EPHEMERIS_TYPE":"0","SITE":"AFETR"},{"TLE_LINE1":"1 46577U 20070AX  22302.86998913  .00000061  00000-0  22986-4 0  9998","ECCENTRICITY":"0.00020370","COUNTRY_CODE":"US","DECAY_DATE":null,"OBJECT_NAME":"STARLINK-1682","MEAN_MOTION_DOT":"0.00000061","MEAN_MOTION_DDOT":"0.0000000000000","TIME_SYSTEM":"UTC","CLASSIFICATION_TYPE":"U","INCLINATION":"53.0545","RCS_SIZE":"LARGE","PERIAPSIS":"545.760","OBJECT_ID":"2020-070AX","BSTAR":"0.00002298600000","SITE":"AFETR","EPHEMERIS_TYPE":"0","RA_OF_ASC_NODE":"269.0188","SEMIMAJOR_AXIS":"6925.306","ELEMENT_SET_NO":"999","GP_ID":"216474869","APOAPSIS":"548.582","EPOCH":"2022-10-29T20:52:47.060832","MEAN_ANOMALY":"307.7654","TLE_LINE2":"2 46577  53.0545 269.0188 0002037  52.3519 307.7654 15.06413837114808","OBJECT_TYPE":"PAYLOAD","FILE":"3637863","REF_FRAME":"TEME","MEAN_MOTION":"15.06413837","LAUNCH_DATE":"2020-10-06","MEAN_ELEMENT_THEORY":"SGP4","REV_AT_EPOCH":"11480","NORAD_CAT_ID":"46577","PERIOD":"95.591","ARG_OF_PERICENTER":"52.3519","CENTER_NAME":"EARTH"},{"APOAPSIS":"548.471","TLE_LINE2":"2 46578  53.0531 254.1708 0001842  49.9783 310.1367 15.06406070115019","MEAN_ANOMALY":"310.1367","EPOCH":"2022-10-29T20:25:35.638752","GP_ID":"216475099","SEMIMAJOR_AXIS":"6925.330","RA_OF_ASC_NODE":"254.1708","ELEMENT_SET_NO":"999","SITE":"AFETR","EPHEMERIS_TYPE":"0","RCS_SIZE":"LARGE","INCLINATION":"53.0531","OBJECT_ID":"2020-070AY","BSTAR":"-0.00001481100000","PERIAPSIS":"545.919","TIME_SYSTEM":"UTC","CLASSIFICATION_TYPE":"U","MEAN_MOTION_DOT":"-0.00000502","OBJECT_NAME":"STARLINK-1683","MEAN_MOTION_DDOT":"0.0000000000000","ECCENTRICITY":"0.00018420","TLE_LINE1":"1 46578U 20070AY  22302.85110693 -.00000502  00000-0 -14811-4 0  9999","DECAY_DATE":null,"COUNTRY_CODE":"US","ARG_OF_PERICENTER":"49.9783","CENTER_NAME":"EARTH","PERIOD":"95.592","REV_AT_EPOCH":"11501","NORAD_CAT_ID":"46578","MEAN_ELEMENT_THEORY":"SGP4","LAUNCH_DATE":"2020-10-06","MEAN_MOTION":"15.06406070","REF_FRAME":"TEME","OBJECT_TYPE":"PAYLOAD","FILE":"3637863"},{"GP_ID":"216453738","TLE_LINE2":"2 46579  53.0556 268.7997 0001893  65.2199 294.8987 15.06420187114791","EPOCH":"2022-10-29T22:07:06.134592","MEAN_ANOMALY":"294.8987","APOAPSIS":"548.463","EPHEMERIS_TYPE":"0","SITE":"AFETR","ELEMENT_SET_NO":"999","SEMIMAJOR_AXIS":"6925.287","RA_OF_ASC_NODE":"268.7997","CLASSIFICATION_TYPE":"U","TIME_SYSTEM":"UTC","BSTAR":"0.00030994000000","OBJECT_ID":"2020-070AZ","PERIAPSIS":"545.841","RCS_SIZE":"LARGE","INCLINATION":"53.0556","COUNTRY_CODE":"US","DECAY_DATE":null,"ECCENTRICITY":"0.00018930","TLE_LINE1":"1 46579U 20070AZ  22302.92159878  .00004340  00000-0  30994-3 0  9997","MEAN_MOTION_DDOT":"0.0000000000000","MEAN_MOTION_DOT":"0.00004340","OBJECT_NAME":"STARLINK-1705","PERIOD":"95.591","CENTER_NAME":"EARTH","ARG_OF_PERICENTER":"65.2199","MEAN_ELEMENT_THEORY":"SGP4","NORAD_CAT_ID":"46579","REV_AT_EPOCH":"11479","REF_FRAME":"TEME","LAUNCH_DATE":"2020-10-06","MEAN_MOTION":"15.06420187","FILE":"3637805","OBJECT_TYPE":"PAYLOAD"},{"REF_FRAME":"TEME","MEAN_MOTION":"15.06400928","LAUNCH_DATE":"2020-10-06","FILE":"3637863","OBJECT_TYPE":"PAYLOAD","PERIOD":"95.592","CENTER_NAME":"EARTH","ARG_OF_PERICENTER":"41.4421","MEAN_ELEMENT_THEORY":"SGP4","NORAD_CAT_ID":"46580","REV_AT_EPOCH":"11477","CLASSIFICATION_TYPE":"U","TIME_SYSTEM":"UTC","PERIAPSIS":"545.487","BSTAR":"-0.00001356000000","OBJECT_ID":"2020-070BA","INCLINATION":"53.0560","RCS_SIZE":"LARGE","COUNTRY_CODE":"US","DECAY_DATE":null,"TLE_LINE1":"1 46580U 20070BA  22302.63409538 -.00000484  00000-0 -13560-4 0  9996","ECCENTRICITY":"0.00024890","MEAN_MOTION_DDOT":"0.0000000000000","OBJECT_NAME":"STARLINK-1708","MEAN_MOTION_DOT":"-0.00000484","GP_ID":"216474119","MEAN_ANOMALY":"318.6756","EPOCH":"2022-10-29T15:13:05.840832","TLE_LINE2":"2 46580  53.0560 270.0904 0002489  41.4421 318.6756 15.06400928114776","APOAPSIS":"548.934","EPHEMERIS_TYPE":"0","SITE":"AFETR","ELEMENT_SET_NO":"999","SEMIMAJOR_AXIS":"6925.346","RA_OF_ASC_NODE":"270.0904"},{"MEAN_ELEMENT_THEORY":"SGP4","NORAD_CAT_ID":"46581","REV_AT_EPOCH":"11487","PERIOD":"95.592","CENTER_NAME":"EARTH","ARG_OF_PERICENTER":"47.0967","FILE":"3637863","OBJECT_TYPE":"PAYLOAD","REF_FRAME":"TEME","MEAN_MOTION":"15.06405513","LAUNCH_DATE":"2020-10-06","EPHEMERIS_TYPE":"0","SITE":"AFETR","ELEMENT_SET_NO":"999","SEMIMAJOR_AXIS":"6925.332","RA_OF_ASC_NODE":"264.0538","GP_ID":"216474370","MEAN_ANOMALY":"313.0199","EPOCH":"2022-10-29T20:45:29.902752","TLE_LINE2":"2 46581  53.0545 264.0538 0002110  47.0967 313.0199 15.06405513114870","APOAPSIS":"548.658","DECAY_DATE":null,"COUNTRY_CODE":"US","TLE_LINE1":"1 46581U 20070BB  22302.86492943  .00000989  00000-0  85310-4 0  9994","ECCENTRICITY":"0.00021100","MEAN_MOTION_DDOT":"0.0000000000000","OBJECT_NAME":"STARLINK-1712","MEAN_MOTION_DOT":"0.00000989","CLASSIFICATION_TYPE":"U","TIME_SYSTEM":"UTC","PERIAPSIS":"545.735","BSTAR":"0.00008531000000","OBJECT_ID":"2020-070BB","INCLINATION":"53.0545","RCS_SIZE":"LARGE"},{"MEAN_MOTION":"15.06420691","LAUNCH_DATE":"2020-10-06","REF_FRAME":"TEME","FILE":"3637801","OBJECT_TYPE":"PAYLOAD","CENTER_NAME":"EARTH","ARG_OF_PERICENTER":"61.3605","PERIOD":"95.591","NORAD_CAT_ID":"46582","REV_AT_EPOCH":"11488","MEAN_ELEMENT_THEORY":"SGP4","PERIAPSIS":"545.985","OBJECT_ID":"2020-070BC","BSTAR":"0.00002636900000","INCLINATION":"53.0540","RCS_SIZE":"LARGE","CLASSIFICATION_TYPE":"U","TIME_SYSTEM":"UTC","MEAN_MOTION_DDOT":"0.0000000000000","OBJECT_NAME":"STARLINK-1728","MEAN_MOTION_DOT":"0.00000111","COUNTRY_CODE":"US","DECAY_DATE":null,"TLE_LINE1":"1 46582U 20070BC  22302.91654209  .00000111  00000-0  26369-4 0  9992","ECCENTRICITY":"0.00016830","EPOCH":"2022-10-29T21:59:49.236576","MEAN_ANOMALY":"298.7553","TLE_LINE2":"2 46582  53.0540 263.8300 0001683  61.3605 298.7553 15.06420691114880","APOAPSIS":"548.316","GP_ID":"216453373","ELEMENT_SET_NO":"999","SEMIMAJOR_AXIS":"6925.285","RA_OF_ASC_NODE":"263.8300","EPHEMERIS_TYPE":"0","SITE":"AFETR"},{"CLASSIFICATION_TYPE":"U","TIME_SYSTEM":"UTC","OBJECT_ID":"2020-070BD","BSTAR":"-0.00035909000000","PERIAPSIS":"545.907","RCS_SIZE":"LARGE","INCLINATION":"53.0545","COUNTRY_CODE":"US","DECAY_DATE":null,"ECCENTRICITY":"0.00017430","TLE_LINE1":"1 46583U 20070BD  22302.23647012 -.00005631  00000-0 -35909-3 0  9995","MEAN_MOTION_DDOT":"0.0000000000000","MEAN_MOTION_DOT":"-0.00005631","OBJECT_NAME":"STARLINK-1729","GP_ID":"216453622","TLE_LINE2":"2 46583  53.0545 286.8779 0001743  50.9211 309.1932 15.06432325114510","EPOCH":"2022-10-29T05:40:31.018368","MEAN_ANOMALY":"309.1932","APOAPSIS":"548.322","EPHEMERIS_TYPE":"0","SITE":"AFETR","ELEMENT_SET_NO":"999","SEMIMAJOR_AXIS":"6925.249","RA_OF_ASC_NODE":"286.8779","REF_FRAME":"TEME","LAUNCH_DATE":"2020-10-06","MEAN_MOTION":"15.06432325","FILE":"3637801","OBJECT_TYPE":"PAYLOAD","PERIOD":"95.590","CENTER_NAME":"EARTH","ARG_OF_PERICENTER":"50.9211","MEAN_ELEMENT_THEORY":"SGP4","NORAD_CAT_ID":"46583","REV_AT_EPOCH":"11451"}];
